      0.5000000  -2.838667e-05   3.041253e-05      -12345.00      -12345.00
   0.0005380000       659.5005      -82.01950      -12345.00       2.000000
      -12345.00      -12345.00      -12295.00      -12345.00      -12245.00
      -12345.00      -12345.00      -12345.00      -12345.00      -12345.00
      -12345.00      -12345.00      -12345.00      -12345.00      -12345.00
      -12345.00      -12345.00      -12345.00      -12345.00      -12345.00
      -12345.00       40.01830       116.1679       137.0000       60.00000
       41.33430       129.0307      -12345.00       106.3000      -12345.00
      -12345.00      -12345.00      -12345.00      -12345.00      -12345.00
      -12345.00      -12345.00      -12345.00      -12345.00      -12345.00
       1096.230       266.5645       78.19222       9.861614      -12345.00
      -12345.00   5.530925e-12       0.000000       0.000000      -12345.00
      -12345.00      -12345.00      -12345.00      -12345.00      -12345.00
      -12345.00      -12345.00      -12345.00      -12345.00      -12345.00
      2017       246         3        31        23
        19         6         0         0      1320
    -12345    -12345    -12345    -12345    -12345
         1         7    -12345    -12345    -12345
    -12345    -12345    -12345    -12345    -12345
    -12345    -12345    -12345    -12345    -12345
    -12345    -12345    -12345    -12345    -12345
         1         0         1         1         0
BJT     -12345          
00      -12345  -12345  
-12345  -12345  -12345  
-12345  -12345  -12345  
-12345  -12345  -12345  
-12345  -12345  -12345  
-12345  -12345  BHZ     
IC      -12345  -12345  
   1.415813e-09   2.767724e-09   2.323520e-09   3.239878e-09   4.638515e-09
   6.412586e-09   7.352087e-09   5.651305e-09   9.552473e-10  -4.678346e-09
  -9.582266e-09  -1.110734e-08  -3.286025e-09   5.840658e-09   1.880482e-08
   3.066372e-08   2.854623e-08   1.406078e-08  -5.400974e-09  -2.744718e-08
  -4.197051e-08  -3.085181e-08   2.665008e-09   3.938033e-08   5.524008e-08
   4.694066e-08   2.277236e-08  -1.267280e-08  -4.766222e-08  -6.550834e-08
  -4.481569e-08  -3.003564e-09   2.093999e-08   4.117733e-08   4.229138e-08
   2.326764e-08   3.915479e-09  -7.601807e-09   1.367499e-09   1.644199e-08
   1.489246e-08  -1.024963e-08  -2.508621e-08  -1.726640e-08  -7.322334e-10
  -7.494864e-09   1.394111e-08   3.865382e-08   4.923606e-08   6.071026e-08
   1.391705e-08  -4.644490e-08  -8.083049e-08  -8.336239e-08  -4.387637e-08
   3.097263e-08   9.566664e-08   9.752720e-08   5.030141e-08  -2.178505e-08
  -9.288814e-08  -7.678704e-08  -4.214894e-08   5.847519e-09   3.310755e-08
   4.254399e-08   5.414369e-08   4.190863e-08   3.253334e-08   1.846838e-08
  -1.862553e-08  -5.964053e-08  -3.843225e-08  -1.515877e-08   1.833453e-08
   3.547807e-08   2.877552e-08  -1.629316e-09  -5.685395e-08  -8.032640e-08
  -2.392047e-08   4.518188e-08   7.156853e-08   6.722316e-08  -2.593511e-08
  -5.555009e-08  -1.054394e-08   1.824027e-08   5.165473e-08   1.073145e-08
  -3.081610e-08  -2.317578e-08   9.080027e-09   4.924450e-08   3.931906e-08
  -5.920273e-09  -2.697290e-08  -4.319137e-09   7.783904e-09   1.283458e-08
  -3.275454e-09  -5.154886e-08  -7.906315e-08  -7.418490e-08  -3.513368e-08
   4.325184e-08   1.258699e-07   1.138371e-07   3.110269e-08  -9.257306e-08
  -1.202005e-07  -9.714305e-08   9.725129e-09   7.049845e-08   1.270399e-07
   9.183160e-08   3.824835e-08  -4.397466e-08  -5.626765e-08  -4.945300e-09
  -3.831856e-08   9.953289e-09  -5.656033e-08   2.127519e-07   1.118990e-07
   9.603211e-09   2.703482e-07   4.206008e-07  -1.822010e-07   2.795719e-08
   6.300658e-08   5.554880e-07  -8.274689e-07  -8.995019e-07   8.849087e-07
   1.564942e-07  -3.666201e-07  -5.459539e-07   1.773761e-07  -5.089502e-08
  -4.351274e-09   2.922036e-08   1.540603e-07   2.722145e-07   3.051549e-07
  -2.640206e-07   3.763422e-07   3.430281e-09  -5.336969e-07  -2.229520e-07
   2.117279e-07   3.588207e-07  -7.313074e-07   1.002668e-07   3.928264e-07
  -3.377503e-07  -4.727883e-07   3.114488e-07  -5.407118e-07   4.454052e-08
   2.925807e-07  -2.462293e-07   5.984563e-07  -1.117031e-08  -4.961972e-07
  -2.492836e-08   6.714907e-07  -4.338620e-08   8.551432e-08   5.134775e-07
  -6.079678e-07  -1.367818e-06  -9.315709e-08   9.812916e-07   2.710764e-08
  -1.037776e-06   4.230517e-07   5.920687e-07  -3.803210e-07  -2.259602e-07
   5.960673e-08   3.023906e-07  -6.517718e-07   2.346185e-08   4.368371e-07
   2.285361e-07  -5.396248e-07  -7.066688e-08   1.340053e-06   7.677230e-08
  -8.366600e-07  -4.858720e-08   5.640729e-07  -4.082685e-07  -1.057956e-06
   2.363640e-08   9.454276e-07  -2.050907e-07  -2.773646e-07   9.874044e-07
  -5.045819e-08  -5.789562e-07   1.231619e-08   5.235913e-07   4.934159e-07
  -3.443991e-07  -5.579955e-07   5.916041e-07   5.623756e-07  -3.673254e-07
  -1.436139e-07   8.165966e-08  -2.980607e-08   2.654580e-07  -2.234266e-07
  -2.543039e-07   4.628339e-07  -1.071548e-06  -8.052304e-09   1.260799e-06
   4.385728e-07  -6.050780e-07  -7.271382e-07   2.773098e-07  -3.225560e-07
  -3.314506e-08   2.008859e-07  -4.484753e-07   3.473882e-07   8.469163e-08
  -6.206393e-07   6.433916e-07  -7.611438e-07   7.618273e-08   4.572285e-07
  -5.842870e-07   2.364088e-07  -7.909917e-08   6.582678e-08  -4.933971e-07
  -7.288581e-08   8.911464e-07  -7.010930e-08  -8.455106e-08   6.250114e-07
  -7.076906e-07  -9.924319e-08  -8.615938e-08  -2.539798e-07   4.655774e-07
  -6.092465e-09   3.302711e-07   2.749821e-07  -4.692845e-07  -6.627853e-07
   6.177719e-08  -1.504361e-07   3.325543e-07   3.856103e-07  -1.704543e-07
   5.291560e-07   9.104171e-08  -2.571063e-07   1.363822e-08   3.103972e-08
  -5.263688e-07   2.773583e-07   5.576575e-07  -7.537598e-07  -2.157091e-07
   6.925124e-07   3.988466e-07  -6.648377e-07  -2.563406e-07   4.494209e-07
  -2.001624e-07  -1.192919e-07   5.872227e-07  -7.887910e-08  -4.598993e-07
  -2.111632e-07   2.109753e-07   8.141940e-07  -3.200458e-07  -2.344368e-07
   1.812829e-07  -5.261527e-07   7.883421e-08   2.747122e-07  -7.299222e-08
   2.783733e-07  -3.120126e-07  -3.369395e-08   2.333134e-07   2.371730e-07
  -8.394359e-07  -4.868613e-07   1.140549e-06   3.590083e-07  -2.458624e-07
  -7.953268e-07   4.417840e-07  -1.432975e-07   7.075105e-08   1.642254e-07
   2.820038e-07  -3.397105e-07  -5.872770e-07   3.590661e-07   2.368965e-07
   8.110012e-07  -7.241068e-07   3.483033e-07  -5.059131e-07  -6.264095e-07
   3.575990e-07   3.715369e-07   3.068993e-07  -4.847232e-07  -4.856543e-07
   8.746301e-08   6.520638e-07  -1.790596e-07   7.848237e-07  -6.878570e-07
  -8.123735e-07   7.248620e-07   5.782056e-07  -6.852757e-07  -1.078780e-06
   8.981305e-07   9.519983e-07  -3.962635e-07  -6.126292e-07   8.024503e-07
  -4.244228e-07  -2.761340e-08  -2.967220e-07  -1.994167e-07   6.075484e-07
   1.205191e-07  -5.272473e-07  -4.753028e-07   1.085779e-06   2.496796e-07
  -3.617408e-07   9.764191e-08   2.366501e-07  -5.310613e-07   4.542689e-07
  -5.458662e-07  -1.862655e-07   9.714383e-07  -2.908552e-07  -7.180503e-07
  -6.535094e-08  -1.980907e-07   1.995383e-07   4.542462e-07  -4.249908e-08
  -1.531838e-07  -1.121497e-06  -3.756446e-07   8.332364e-07  -1.102868e-07
  -2.790276e-07   4.414918e-07  -9.088457e-08   1.371033e-06   3.656998e-07
  -1.751219e-06  -6.215203e-07   4.801389e-07   2.651475e-07  -2.974685e-07
   2.366885e-07   6.221219e-07  -5.792551e-07  -3.128417e-07  -4.197861e-08
   2.488758e-07   2.055554e-07  -3.842717e-07  -1.284514e-06   4.335752e-07
   1.105438e-06  -1.378350e-06  -1.932884e-07   1.071930e-06   2.403562e-07
  -3.481101e-07   4.271089e-07   4.347198e-07  -1.899957e-07  -1.723283e-07
  -6.651277e-07  -4.227340e-07  -3.472944e-07  -2.071333e-06  -1.026942e-06
   2.364578e-06   1.991370e-06  -5.422698e-07   7.274964e-08  -4.306105e-07
   4.325785e-07  -5.525113e-07  -9.797952e-07   6.393523e-07   9.749557e-07
   1.115642e-07  -6.196131e-07   5.485578e-07   4.556433e-07   1.130566e-07
   3.455092e-07   3.289907e-07  -2.168271e-06  -1.386639e-06   2.289305e-06
   1.903020e-06  -4.410731e-07   5.115026e-07   8.169759e-07   2.055204e-06
   7.841830e-07  -1.004858e-06  -2.320814e-06   3.845012e-08   1.761700e-06
  -8.967795e-07   1.727218e-06   1.778030e-06  -1.789507e-06  -2.335541e-07
   1.642394e-06  -6.507254e-07   2.113158e-06   1.212043e-06  -7.124091e-07
  -9.489872e-07  -2.192390e-06   2.169143e-06   3.616210e-06  -1.042719e-06
  -9.028878e-07  -1.026088e-06  -4.648668e-07  -2.858104e-07  -2.634435e-06
   1.085323e-06   1.733671e-06   3.218650e-06   7.114182e-07  -2.729078e-06
  -5.108468e-09   1.598915e-06  -1.356300e-06  -1.776410e-06  -1.424991e-06
  -2.264970e-06  -2.038278e-07   5.088194e-06  -1.800319e-07  -8.750194e-06
  -2.024173e-06   4.193869e-06   3.957539e-06  -1.732796e-06  -2.876676e-06
  -3.769725e-06   2.310568e-07   2.255047e-06  -9.092872e-07  -2.074869e-07
  -1.903900e-06  -7.124319e-07  -1.170709e-06  -2.389518e-06   1.485905e-06
   4.303602e-06   2.183980e-06   2.221311e-07  -9.927446e-06  -4.356047e-06
   1.144987e-05   6.463731e-06  -4.224208e-06  -7.628087e-06   1.425620e-07
   3.090164e-06  -1.196831e-07  -4.031996e-06   7.718932e-06   7.131180e-06
   2.872012e-06   4.624084e-06  -1.190788e-05  -7.628853e-06   3.937590e-06
   2.421363e-06   5.582695e-06   6.590439e-06   4.573581e-07  -5.062475e-06
  -7.039346e-06   1.395297e-06  -7.333160e-06   5.189212e-06   2.041347e-05
   1.119160e-06  -6.106529e-06  -1.204495e-05  -1.642478e-06   4.181647e-06
  -6.031034e-06  -5.234092e-06   1.156706e-05   5.008892e-06  -3.534999e-06
   6.809072e-07  -7.849012e-06  -4.852393e-07   5.182360e-07   4.701017e-06
   1.217851e-06  -8.960651e-06   1.144393e-06  -2.517037e-06  -7.583405e-06
   4.274202e-06   1.010757e-06   8.244016e-07   2.378797e-06  -3.482167e-06
   5.683673e-06   5.828238e-06  -3.081924e-06  -4.168235e-06  -6.196811e-06
  -1.489066e-05  -1.860368e-06   1.288752e-05   8.045478e-06   3.418791e-07
   5.291658e-07   1.708926e-06  -5.621093e-06   9.191905e-06   7.976067e-06
  -6.966427e-06   5.718540e-06   1.534485e-05   9.496320e-06  -5.839948e-08
  -1.531749e-05  -9.622395e-06   4.862510e-06  -5.515926e-06  -2.095586e-05
  -1.537423e-05   3.531302e-06   7.271412e-06   1.467556e-06  -1.098159e-06
   1.032673e-05   1.413422e-05   1.046081e-05   8.713958e-06   7.780175e-06
   9.946968e-06   1.314126e-05   5.576887e-06  -1.283179e-05  -1.969024e-05
  -1.837963e-05  -1.318656e-05  -1.740871e-05  -2.838667e-05  -2.202763e-05
  -5.572779e-06   2.495726e-06   1.594308e-06  -4.026751e-06   1.415004e-05
   3.041253e-05   1.643029e-05   2.749214e-06   1.466315e-05   2.232494e-05
   1.240131e-05   6.453915e-06   6.928289e-06   1.386073e-05  -2.768926e-06
  -1.163733e-05  -3.728654e-06  -3.936403e-06  -7.745994e-06  -1.126449e-05
  -1.153481e-05  -1.418502e-05  -1.146653e-05  -1.070132e-05  -9.593032e-06
   3.202323e-07   2.125738e-06   5.005198e-06   1.170000e-05   3.941802e-06
   3.702570e-06   2.937862e-06  -5.484349e-06  -9.478912e-06  -5.832480e-06
   3.625341e-06   6.742330e-06   9.178488e-07   1.029059e-06   1.691329e-05
   2.285039e-05   2.975664e-06  -1.325938e-05  -9.728406e-06   5.557372e-07
   9.993595e-06   3.004352e-06  -9.355467e-06  -6.255019e-06  -1.623452e-06
  -8.776719e-07   8.227296e-06   1.860216e-06  -1.351999e-05  -6.386762e-06
   1.540389e-06  -5.873030e-06  -7.441794e-06   7.627490e-07   4.619415e-06
   5.024581e-06   1.186327e-05   1.165849e-05  -3.977905e-06  -7.727169e-06
  -2.769335e-06  -1.129651e-06   4.486619e-06   4.898611e-06  -3.219246e-06
  -1.113608e-05  -1.163423e-05  -5.089178e-06   4.718363e-06   1.056432e-05
   1.076674e-05   1.269287e-05   9.689986e-06  -1.779315e-07  -8.431607e-06
  -1.052627e-05  -1.179405e-05  -1.424437e-05  -7.630108e-06   7.434836e-06
   1.672840e-05   1.527281e-05   1.010552e-05  -1.079631e-06  -1.476023e-05
  -1.488080e-05  -7.563852e-06  -3.338516e-06   4.937226e-06   1.873078e-05
   1.373173e-05  -4.444476e-06  -1.404081e-05  -1.549326e-05  -1.802038e-06
   1.647420e-05   1.385351e-05  -6.211703e-07  -9.568903e-06  -6.209325e-06
   6.742818e-06   8.441434e-06   2.916974e-07  -7.454251e-06  -1.295287e-05
  -1.090088e-05  -3.879626e-06   3.463184e-06   1.209517e-05   1.513118e-05
   1.039969e-05   2.524661e-06  -2.878565e-06  -1.019347e-05  -1.416312e-05
  -2.939944e-06   6.531049e-06   4.628296e-06   1.947039e-06   2.311758e-07
  -5.053395e-07  -3.408631e-06  -4.268025e-06  -2.000713e-06  -3.182136e-06
   6.553487e-07   6.061141e-06   7.957531e-06   5.984780e-06   3.278855e-06
  -6.696935e-08  -1.066076e-05  -1.269024e-05  -5.472346e-06   4.662338e-07
   7.045686e-06   8.238163e-06   3.384912e-06   3.506593e-06   3.589775e-06
  -4.439394e-06  -4.052367e-06   5.412618e-07   2.454882e-06  -1.924925e-06
  -1.155000e-05  -1.222861e-05  -1.067210e-07   1.382948e-05   1.596155e-05
   7.899010e-06  -6.219343e-06  -1.251216e-05  -3.604709e-06   2.238728e-06
   2.995214e-06   4.729847e-06   3.075308e-06   9.344781e-08  -6.304216e-06
  -1.159513e-05  -1.028244e-05   9.581560e-07   1.196192e-05   1.172007e-05
   5.938037e-06   2.594869e-07  -1.018478e-06  -2.411154e-06  -5.054238e-06
  -4.737037e-06   1.236675e-06   5.534163e-06  -1.754883e-06  -6.682279e-06
  -7.439195e-07   4.380662e-07  -2.187315e-06   1.531900e-06   5.217792e-06
   2.220961e-06  -1.393450e-06  -4.172316e-06  -2.455980e-06   2.929452e-06
   4.986519e-06   8.083011e-06   2.922334e-06  -7.251452e-06  -8.811192e-06
  -9.311767e-07   5.507414e-06   2.781901e-06   5.666911e-07  -2.659786e-06
  -9.129590e-06  -7.593718e-06  -2.447980e-06   5.276105e-06   9.880003e-06
   5.245215e-06   2.996182e-06   6.977035e-07  -3.364103e-06  -4.579770e-06
  -1.792476e-06  -1.506686e-06   3.145163e-06   7.126654e-06   3.641466e-06
   3.015423e-06   1.048744e-07  -8.897036e-06  -1.146337e-05  -3.509335e-06
   2.040531e-06   1.659225e-08  -2.029814e-06   2.791912e-06   7.725978e-06
   8.648354e-06   3.140970e-06  -5.392780e-07  -1.406205e-06  -6.296458e-06
  -8.803010e-06  -7.354115e-06  -1.838906e-06   3.223689e-06   5.481775e-06
   6.060086e-06   4.413171e-06   2.460237e-06   1.548627e-06   1.650209e-06
  -6.097817e-07  -5.467902e-06  -4.959275e-06  -2.505502e-08  -1.329804e-07
  -4.328503e-06  -2.805972e-06   2.797436e-06   5.065689e-06   3.458180e-06
   5.905229e-07  -3.759215e-06  -4.552845e-06  -1.693666e-06  -1.107566e-06
   9.250570e-07   3.855467e-06   4.166088e-06   2.308932e-06   1.721178e-06
   2.791708e-06   1.767573e-06  -1.483953e-06  -2.046941e-06  -2.232534e-06
  -4.944521e-06  -6.136400e-06  -5.507043e-06  -1.826809e-07   3.096015e-06
   2.857483e-06   4.112303e-06   3.837942e-06   4.502992e-06   3.315941e-06
   4.047610e-07  -4.678839e-06  -6.581114e-06  -2.619567e-06   8.901192e-07
   3.344897e-06   2.942414e-06  -5.331804e-07  -3.249512e-06  -2.579561e-06
  -2.446976e-06  -1.634506e-08   3.069096e-06   2.654268e-06   8.523509e-07
  -8.636256e-07  -2.309404e-06  -9.022955e-08   1.829699e-06  -2.177290e-08
   6.431274e-07   3.026354e-06   5.315687e-06   2.618248e-06  -3.598667e-06
  -7.996949e-06  -6.681963e-06   3.204519e-07   5.621195e-06   3.111894e-06
  -7.441593e-07  -1.496068e-06  -2.391543e-06  -1.741755e-06  -7.875032e-07
  -2.992923e-07   5.285287e-07   1.611408e-06   1.716003e-06   3.728747e-06
   5.376356e-06   2.927752e-06   4.178869e-07  -3.297343e-06  -7.121401e-06
  -5.504408e-06   5.328070e-07   3.138263e-06   1.240010e-06  -1.559866e-06
  -3.305743e-06  -3.358564e-06  -2.044377e-06   1.621124e-06   5.875289e-06
   7.020101e-06   5.381633e-06   2.775383e-06  -1.918868e-06  -4.975606e-06
  -3.393626e-06  -1.726521e-06  -2.246648e-06  -1.494496e-06   1.126104e-06
   3.603061e-07  -1.352650e-06  -7.063899e-07  -8.874721e-07   9.967553e-07
   3.474028e-06   1.640098e-06   7.766656e-08   1.051897e-06   8.002161e-07
  -4.062866e-07  -1.283760e-06  -3.381434e-07   7.056827e-07   6.116579e-07
  -1.158909e-06  -3.027565e-06  -2.696926e-06  -1.887551e-06  -1.244556e-06
   9.003160e-07   4.061872e-06   3.768482e-06   2.698845e-06   8.167112e-07
  -2.684796e-06  -3.204648e-06  -2.057120e-07   2.531318e-06   3.566908e-06
   3.793761e-06   2.169673e-06  -1.816342e-06  -6.233621e-06  -6.983607e-06
  -2.903329e-06  -8.322403e-08   6.931793e-07   1.612327e-06   1.523038e-06
   1.536047e-06   9.235811e-07  -5.748535e-07  -1.120636e-06   1.040019e-06
   3.432535e-06   3.585270e-06   2.200931e-06   4.779745e-07  -2.615009e-06
  -3.800820e-06  -3.334372e-06  -2.348125e-06  -8.051265e-07  -5.103210e-07
   3.357325e-07   7.370711e-07   1.604551e-06   2.999692e-06   4.354393e-06
   2.563397e-06  -3.963814e-07  -2.250557e-06  -4.203058e-06  -4.204817e-06
  -2.395424e-06   6.499531e-07   2.100358e-06   2.212632e-06   2.596337e-06
   2.557374e-06   1.769770e-06   1.080199e-06  -1.077779e-06  -3.281800e-06
  -3.580897e-06  -4.264632e-06  -3.866001e-06  -7.550744e-07   2.248405e-06
   3.314107e-06   4.338578e-06   6.565807e-06   4.298304e-06  -1.880255e-06
  -2.551240e-06  -1.381520e-06  -2.569994e-06  -4.033976e-06  -4.103952e-06
  -1.366720e-06   2.203825e-06   3.525180e-06   2.300615e-06   6.559798e-07
   5.899406e-07  -2.833498e-07  -2.385039e-06  -2.486949e-06  -1.152594e-06
   4.661553e-07   2.619821e-06   4.509145e-06   3.800072e-06  -6.315580e-08
  -3.878135e-06  -3.901558e-06  -1.052873e-06   4.257141e-07  -1.318485e-06
  -2.471785e-06  -9.612297e-07   1.130197e-06   2.437742e-06   3.468122e-06
   3.375782e-06   5.999672e-07  -1.903285e-06  -1.341173e-06   8.360577e-07
   2.505042e-06   7.443616e-07  -3.386624e-06  -4.371572e-06  -3.375146e-06
  -1.589119e-06   8.605698e-07   1.393368e-06   2.354447e-06   3.765058e-06
   2.162612e-06  -5.032796e-07  -2.476327e-06  -2.107270e-06  -1.720920e-07
  -1.018668e-07  -2.848117e-08   1.825494e-06   2.976186e-06   6.025378e-07
  -9.315788e-07  -7.179685e-07  -1.469533e-06  -1.524347e-06  -6.432010e-07
  -6.599280e-07  -6.205204e-07   1.323351e-06   1.262744e-06   5.133106e-07
   6.187822e-07   5.951796e-07   7.590324e-07   7.455072e-07   5.386403e-09
  -1.787454e-06  -3.195463e-06  -3.003563e-06   1.948549e-07   2.030428e-06
   4.106390e-07   8.624742e-07   2.575658e-06   1.660075e-06   5.394760e-07
  -2.509314e-07  -1.444894e-06  -2.085102e-06  -2.734961e-06  -1.617089e-06
   2.496513e-06   4.534005e-06   1.949167e-06  -7.319649e-07  -1.796009e-06
  -2.699421e-06  -3.288328e-06  -1.927024e-06   2.195161e-06   4.273882e-06
   1.967810e-06  -3.065051e-08  -1.249577e-07  -8.119976e-07  -1.240219e-06
   1.123647e-06   2.223038e-06  -4.544209e-07  -3.257160e-06  -3.123084e-06
  -1.084137e-06   1.269364e-06   3.456261e-06   2.911747e-06  -1.984635e-07
  -2.726490e-06  -2.307120e-06  -1.460098e-07   7.664474e-07   6.573461e-07
   1.717554e-07  -4.266057e-07  -1.302421e-07   9.907560e-07   2.233709e-06
   2.076884e-06   8.091798e-07  -5.041607e-07  -2.682535e-06  -3.900061e-06
  -2.354265e-06   8.277296e-07   3.109303e-06   1.741831e-06  -7.625318e-07
  -1.178861e-06  -1.056543e-06  -1.356527e-06  -7.950057e-07   1.116121e-06
   2.697284e-06   2.825235e-06   1.358029e-06  -8.293943e-07  -1.976905e-06
  -1.551258e-06  -6.047718e-07  -4.979805e-08   8.580679e-07   8.256865e-07
  -4.938179e-07  -6.428900e-07  -6.373664e-07  -1.102737e-07   1.978468e-06
   2.510428e-06  -4.168844e-08  -2.262049e-06  -2.403238e-06  -2.008037e-06
  -4.722296e-07   9.650917e-07   1.397448e-06   1.591371e-06   1.408788e-06
   4.164294e-07  -1.352597e-06  -2.064332e-06  -1.422375e-06  -2.510363e-07
   1.602651e-06   3.058884e-06   1.863136e-06   6.397357e-08  -4.488816e-07
  -1.838743e-06  -2.471802e-06  -4.483122e-07   8.115503e-07   4.014721e-07
   1.104417e-06   1.334678e-06  -1.073264e-06  -2.401194e-06  -3.745722e-07
   1.597917e-06   1.468347e-06   2.131664e-07  -9.098745e-07  -1.397057e-06
  -1.636978e-07   2.173184e-06   2.987769e-06   1.603909e-06  -1.412451e-06
  -3.051029e-06  -3.280910e-06  -3.181881e-06  -1.642575e-06   7.766137e-07
   2.443398e-06   1.985607e-06   7.191863e-07   5.252971e-07   9.783263e-07
